<?xml version="1.0" encoding="UTF-8"?>
<ndm xmlns:xsi="http://www.w3.org/2001/XMLSchema-instance" xsi:noNamespaceSchemaLocation="https://sanaregistry.org/r/ndmxml_unqualified/ndmxml-2.0.0-master-2.0.xsd">
<omm id="CCSDS_OMM_VERS" version="2.0">
<header><CREATION_DATE/><ORIGINATOR/></header><body><segment><metadata><OBJECT_NAME>IRIDIUM 112</OBJECT_NAME><OBJECT_ID>2017-003J</OBJECT_ID><CENTER_NAME>EARTH</CENTER_NAME><REF_FRAME>TEME</REF_FRAME><TIME_SYSTEM>UTC</TIME_SYSTEM><MEAN_ELEMENT_THEORY>SGP4</MEAN_ELEMENT_THEORY></metadata><data><meanElements><EPOCH>2024-08-24T14:07:22.241568</EPOCH><MEAN_MOTION>14.34218980</MEAN_MOTION><ECCENTRICITY>.0002546</ECCENTRICITY><INCLINATION>86.4012</INCLINATION><RA_OF_ASC_NODE>4.7744</RA_OF_ASC_NODE><ARG_OF_PERICENTER>92.5984</ARG_OF_PERICENTER><MEAN_ANOMALY>267.5503</MEAN_ANOMALY></meanElements><tleParameters><EPHEMERIS_TYPE>0</EPHEMERIS_TYPE><CLASSIFICATION_TYPE>U</CLASSIFICATION_TYPE><NORAD_CAT_ID>41925</NORAD_CAT_ID><ELEMENT_SET_NO>999</ELEMENT_SET_NO><REV_AT_EPOCH>39844</REV_AT_EPOCH><BSTAR>.27864E-3</BSTAR><MEAN_MOTION_DOT>.8E-5</MEAN_MOTION_DOT><MEAN_MOTION_DDOT>0</MEAN_MOTION_DDOT></tleParameters></data></segment></body></omm>
<omm id="CCSDS_OMM_VERS" version="2.0">
<header><CREATION_DATE/><ORIGINATOR/></header><body><segment><metadata><OBJECT_NAME>IRIDIUM 111</OBJECT_NAME><OBJECT_ID>2017-003K</OBJECT_ID><CENTER_NAME>EARTH</CENTER_NAME><REF_FRAME>TEME</REF_FRAME><TIME_SYSTEM>UTC</TIME_SYSTEM><MEAN_ELEMENT_THEORY>SGP4</MEAN_ELEMENT_THEORY></metadata><data><meanElements><EPOCH>2024-08-24T10:28:09.609312</EPOCH><MEAN_MOTION>14.34213743</MEAN_MOTION><ECCENTRICITY>.0002252</ECCENTRICITY><INCLINATION>86.4007</INCLINATION><RA_OF_ASC_NODE>4.8944</RA_OF_ASC_NODE><ARG_OF_PERICENTER>84.5792</ARG_OF_PERICENTER><MEAN_ANOMALY>275.5661</MEAN_ANOMALY></meanElements><tleParameters><EPHEMERIS_TYPE>0</EPHEMERIS_TYPE><CLASSIFICATION_TYPE>U</CLASSIFICATION_TYPE><NORAD_CAT_ID>41926</NORAD_CAT_ID><ELEMENT_SET_NO>999</ELEMENT_SET_NO><REV_AT_EPOCH>39847</REV_AT_EPOCH><BSTAR>-.13443E-4</BSTAR><MEAN_MOTION_DOT>-.18E-6</MEAN_MOTION_DOT><MEAN_MOTION_DDOT>0</MEAN_MOTION_DDOT></tleParameters></data></segment></body></omm>
<omm id="CCSDS_OMM_VERS" version="2.0">
<header><CREATION_DATE/><ORIGINATOR/></header><body><segment><metadata><OBJECT_NAME>IRIDIUM 113</OBJECT_NAME><OBJECT_ID>2017-039A</OBJECT_ID><CENTER_NAME>EARTH</CENTER_NAME><REF_FRAME>TEME</REF_FRAME><TIME_SYSTEM>UTC</TIME_SYSTEM><MEAN_ELEMENT_THEORY>SGP4</MEAN_ELEMENT_THEORY></metadata><data><meanElements><EPOCH>2024-08-24T13:20:15.246528</EPOCH><MEAN_MOTION>14.34217341</MEAN_MOTION><ECCENTRICITY>.0002332</ECCENTRICITY><INCLINATION>86.3939</INCLINATION><RA_OF_ASC_NODE>238.6004</RA_OF_ASC_NODE><ARG_OF_PERICENTER>85.0521</ARG_OF_PERICENTER><MEAN_ANOMALY>275.0941</MEAN_ANOMALY></meanElements><tleParameters><EPHEMERIS_TYPE>0</EPHEMERIS_TYPE><CLASSIFICATION_TYPE>U</CLASSIFICATION_TYPE><NORAD_CAT_ID>42803</NORAD_CAT_ID><ELEMENT_SET_NO>999</ELEMENT_SET_NO><REV_AT_EPOCH>37635</REV_AT_EPOCH><BSTAR>-.98575E-5</BSTAR><MEAN_MOTION_DOT>-.8E-7</MEAN_MOTION_DOT><MEAN_MOTION_DDOT>0</MEAN_MOTION_DDOT></tleParameters></data></segment></body></omm>
<omm id="CCSDS_OMM_VERS" version="2.0">
<header><CREATION_DATE/><ORIGINATOR/></header><body><segment><metadata><OBJECT_NAME>IRIDIUM 123</OBJECT_NAME><OBJECT_ID>2017-039B</OBJECT_ID><CENTER_NAME>EARTH</CENTER_NAME><REF_FRAME>TEME</REF_FRAME><TIME_SYSTEM>UTC</TIME_SYSTEM><MEAN_ELEMENT_THEORY>SGP4</MEAN_ELEMENT_THEORY></metadata><data><meanElements><EPOCH>2024-08-24T14:19:59.864160</EPOCH><MEAN_MOTION>14.34219642</MEAN_MOTION><ECCENTRICITY>.0002197</ECCENTRICITY><INCLINATION>86.3919</INCLINATION><RA_OF_ASC_NODE>270.0901</RA_OF_ASC_NODE><ARG_OF_PERICENTER>87.9925</ARG_OF_PERICENTER><MEAN_ANOMALY>272.1523</MEAN_ANOMALY></meanElements><tleParameters><EPHEMERIS_TYPE>0</EPHEMERIS_TYPE><CLASSIFICATION_TYPE>U</CLASSIFICATION_TYPE><NORAD_CAT_ID>42804</NORAD_CAT_ID><ELEMENT_SET_NO>999</ELEMENT_SET_NO><REV_AT_EPOCH>37512</REV_AT_EPOCH><BSTAR>.19821E-3</BSTAR><MEAN_MOTION_DOT>.575E-5</MEAN_MOTION_DOT><MEAN_MOTION_DDOT>0</MEAN_MOTION_DDOT></tleParameters></data></segment></body></omm>
<omm id="CCSDS_OMM_VERS" version="2.0">
<header><CREATION_DATE/><ORIGINATOR/></header><body><segment><metadata><OBJECT_NAME>IRIDIUM 120</OBJECT_NAME><OBJECT_ID>2017-039C</OBJECT_ID><CENTER_NAME>EARTH</CENTER_NAME><REF_FRAME>TEME</REF_FRAME><TIME_SYSTEM>UTC</TIME_SYSTEM><MEAN_ELEMENT_THEORY>SGP4</MEAN_ELEMENT_THEORY></metadata><data><meanElements><EPOCH>2024-08-24T11:30:39.295872</EPOCH><MEAN_MOTION>14.34217219</MEAN_MOTION><ECCENTRICITY>.0002235</ECCENTRICITY><INCLINATION>86.3925</INCLINATION><RA_OF_ASC_NODE>238.5005</RA_OF_ASC_NODE><ARG_OF_PERICENTER>89.5531</ARG_OF_PERICENTER><MEAN_ANOMALY>270.5921</MEAN_ANOMALY></meanElements><tleParameters><EPHEMERIS_TYPE>0</EPHEMERIS_TYPE><CLASSIFICATION_TYPE>U</CLASSIFICATION_TYPE><NORAD_CAT_ID>42805</NORAD_CAT_ID><ELEMENT_SET_NO>999</ELEMENT_SET_NO><REV_AT_EPOCH>37633</REV_AT_EPOCH><BSTAR>.86643E-4</BSTAR><MEAN_MOTION_DOT>.262E-5</MEAN_MOTION_DOT><MEAN_MOTION_DDOT>0</MEAN_MOTION_DDOT></tleParameters></data></segment></body></omm>
<omm id="CCSDS_OMM_VERS" version="2.0">
<header><CREATION_DATE/><ORIGINATOR/></header><body><segment><metadata><OBJECT_NAME>IRIDIUM 115</OBJECT_NAME><OBJECT_ID>2017-039D</OBJECT_ID><CENTER_NAME>EARTH</CENTER_NAME><REF_FRAME>TEME</REF_FRAME><TIME_SYSTEM>UTC</TIME_SYSTEM><MEAN_ELEMENT_THEORY>SGP4</MEAN_ELEMENT_THEORY></metadata><data><meanElements><EPOCH>2024-08-24T11:51:50.764320</EPOCH><MEAN_MOTION>14.43272339</MEAN_MOTION><ECCENTRICITY>.000257</ECCENTRICITY><INCLINATION>86.4463</INCLINATION><RA_OF_ASC_NODE>238.5288</RA_OF_ASC_NODE><ARG_OF_PERICENTER>84.0735</ARG_OF_PERICENTER><MEAN_ANOMALY>276.0758</MEAN_ANOMALY></meanElements><tleParameters><EPHEMERIS_TYPE>0</EPHEMERIS_TYPE><CLASSIFICATION_TYPE>U</CLASSIFICATION_TYPE><NORAD_CAT_ID>42806</NORAD_CAT_ID><ELEMENT_SET_NO>999</ELEMENT_SET_NO><REV_AT_EPOCH>37882</REV_AT_EPOCH><BSTAR>.1139E-3</BSTAR><MEAN_MOTION_DOT>.403E-5</MEAN_MOTION_DOT><MEAN_MOTION_DDOT>0</MEAN_MOTION_DDOT></tleParameters></data></segment></body></omm>
<omm id="CCSDS_OMM_VERS" version="2.0">
<header><CREATION_DATE/><ORIGINATOR/></header><body><segment><metadata><OBJECT_NAME>IRIDIUM 118</OBJECT_NAME><OBJECT_ID>2017-039E</OBJECT_ID><CENTER_NAME>EARTH</CENTER_NAME><REF_FRAME>TEME</REF_FRAME><TIME_SYSTEM>UTC</TIME_SYSTEM><MEAN_ELEMENT_THEORY>SGP4</MEAN_ELEMENT_THEORY></metadata><data><meanElements><EPOCH>2024-08-24T15:05:39.150240</EPOCH><MEAN_MOTION>14.34221220</MEAN_MOTION><ECCENTRICITY>.0002208</ECCENTRICITY><INCLINATION>86.3919</INCLINATION><RA_OF_ASC_NODE>270.0778</RA_OF_ASC_NODE><ARG_OF_PERICENTER>95.9029</ARG_OF_PERICENTER><MEAN_ANOMALY>264.2418</MEAN_ANOMALY></meanElements><tleParameters><EPHEMERIS_TYPE>0</EPHEMERIS_TYPE><CLASSIFICATION_TYPE>U</CLASSIFICATION_TYPE><NORAD_CAT_ID>42807</NORAD_CAT_ID><ELEMENT_SET_NO>999</ELEMENT_SET_NO><REV_AT_EPOCH>37512</REV_AT_EPOCH><BSTAR>.18881E-3</BSTAR><MEAN_MOTION_DOT>.549E-5</MEAN_MOTION_DOT><MEAN_MOTION_DDOT>0</MEAN_MOTION_DDOT></tleParameters></data></segment></body></omm>
<omm id="CCSDS_OMM_VERS" version="2.0">
<header><CREATION_DATE/><ORIGINATOR/></header><body><segment><metadata><OBJECT_NAME>IRIDIUM 117</OBJECT_NAME><OBJECT_ID>2017-039F</OBJECT_ID><CENTER_NAME>EARTH</CENTER_NAME><REF_FRAME>TEME</REF_FRAME><TIME_SYSTEM>UTC</TIME_SYSTEM><MEAN_ELEMENT_THEORY>SGP4</MEAN_ELEMENT_THEORY></metadata><data><meanElements><EPOCH>2024-08-24T13:52:34.985280</EPOCH><MEAN_MOTION>14.34219005</MEAN_MOTION><ECCENTRICITY>.0002327</ECCENTRICITY><INCLINATION>86.3918</INCLINATION><RA_OF_ASC_NODE>270.0629</RA_OF_ASC_NODE><ARG_OF_PERICENTER>88.3984</ARG_OF_PERICENTER><MEAN_ANOMALY>271.7479</MEAN_ANOMALY></meanElements><tleParameters><EPHEMERIS_TYPE>0</EPHEMERIS_TYPE><CLASSIFICATION_TYPE>U</CLASSIFICATION_TYPE><NORAD_CAT_ID>42808</NORAD_CAT_ID><ELEMENT_SET_NO>999</ELEMENT_SET_NO><REV_AT_EPOCH>37514</REV_AT_EPOCH><BSTAR>.17869E-3</BSTAR><MEAN_MOTION_DOT>.52E-5</MEAN_MOTION_DOT><MEAN_MOTION_DDOT>0</MEAN_MOTION_DDOT></tleParameters></data></segment></body></omm>

</ndm>
