IRIDIUM 112             
1 41925U 17003J   24237.58845187  .00000800  00000+0  27864-3 0  9993
2 41925  86.4012   4.7744 0002546  92.5984 267.5503 14.34218980398440
IRIDIUM 111             
1 41926U 17003K   24237.43622233 -.00000018  00000+0 -13443-4 0  9995
2 41926  86.4007   4.8944 0002252  84.5792 275.5661 14.34213743398479
IRIDIUM 113             
1 42803U 17039A   24237.55573202 -.00000008  00000+0 -98575-5 0  9992
2 42803  86.3939 238.6004 0002332  85.0521 275.0941 14.34217341376353
IRIDIUM 123             
1 42804U 17039B   24237.59722065  .00000575  00000+0  19821-3 0  9992
2 42804  86.3919 270.0901 0002197  87.9925 272.1523 14.34219642375120
IRIDIUM 120             
1 42805U 17039C   24237.47962148  .00000262  00000+0  86643-4 0  9998
2 42805  86.3925 238.5005 0002235  89.5531 270.5921 14.34217219376332
IRIDIUM 115             
1 42806U 17039D   24237.49433755  .00000403  00000+0  11390-3 0  9991
2 42806  86.4463 238.5288 0002570  84.0735 276.0758 14.43272339378821
IRIDIUM 118             
1 42807U 17039E   24237.62892535  .00000549  00000+0  18881-3 0  9995
2 42807  86.3919 270.0778 0002208  95.9029 264.2418 14.34221220375122
IRIDIUM 117             
1 42808U 17039F   24237.57818270  .00000520  00000+0  17869-3 0  9998
2 42808  86.3918 270.0629 0002327  88.3984 271.7479 14.34219005375145
